ONEWEB-0512             
1 54130U 22138T   25195.92360034 -.00000024  00000+0 -92335-4 0  9991
2 54130  87.9210  12.0340 0002236  97.6588 262.4798 13.19724958132326
ONEWEB-0513             
1 54131U 22138U   25196.52606423  .00000045  00000+0  78337-4 0  9991
2 54131  87.9220  11.8770 0002258  99.8523 260.2865 13.20264168133167
ONEWEB-0514             
1 54132U 22138V   25196.54593804 -.00000034  00000+0 -11729-3 0  9993
2 54132  87.9216  11.8772 0001716  91.3846 268.7483 13.19726034133294
ONEWEB-0515             
1 54133U 22138W   25195.92538966 -.00000043  00000+0 -13829-3 0  9996
2 54133  87.9285 341.5959 0001564  67.0962 293.0336 13.20770922134781
ONEWEB-0516             
1 54134U 22138X   25196.52065675  .00000109  00000+0  23964-3 0  9998
2 54134  87.9215  11.9193 0001999  89.6688 270.4673 13.19725065133294
ONEWEB-0517             
1 54135U 22138Y   25196.50012324  .00000037  00000+0  60857-4 0  9993
2 54135  87.9215  11.8816 0001739 101.7234 258.4094 13.19725284133297
ONEWEB-0518             
1 54136U 22138Z   25195.98836005  .00000014  00000+0  17662-5 0  9997
2 54136  87.9216  12.0209 0002056  92.6926 267.4442 13.19724561133224
ONEWEB-0519             
1 54137U 22138AA  25196.54434839 -.00000006  00000+0 -46194-4 0  9994
2 54137  87.9216  11.8652 0001811  99.3658 260.7680 13.19724795133306
